STARLINK-34733          
1 66487U 25263C   25342.25003472 -.00035297  00000+0 -59876-3 0  9993
2 66487  43.0004 151.4185 0001669 278.6013 115.3116 15.50568399  4911
STARLINK-35515          
1 66488U 25263D   25342.25003472 -.00035714  00000+0 -60593-3 0  9996
2 66488  43.0005 151.4126 0001613 278.7710 117.0588 15.50568782  4910
STARLINK-35696          
1 66489U 25263E   25342.25003472 -.00032411  00000+0 -54910-3 0  9994
2 66489  43.0004 151.4082 0001766 279.9676 117.7742 15.50569197  4914
STARLINK-35693          
1 66490U 25263F   25342.25003472  .00095337  00000+0  16156-2 0  9999
2 66490  43.0003 151.4037 0001672 280.9390 118.7368 15.50502362  4912
STARLINK-35663          
1 66491U 25263G   25342.25003472  .00114016  00000+0  19261-2 0  9996
2 66491  43.0004 151.3937 0001701 281.1374 122.3678 15.50505733  4910
STARLINK-35673          
1 66492U 25263H   25342.25003472  .00093629  00000+0  15869-2 0  9993
2 66492  43.0005 151.3888 0001746 278.0629 127.3622 15.50505918  4913
STARLINK-35597          
1 66493U 25263J   25342.25003472 -.00042831  00000+0 -72845-3 0  9993
2 66493  43.0006 151.3832 0001540 265.4776 141.8582 15.50570955  4918
STARLINK-35689          
1 66494U 25263K   25342.25003472 -.00020997  00000+0 -35324-3 0  9994
2 66494  43.0003 151.3987 0001474 267.7982 133.7816 15.50563355  4913
STARLINK-35832          
1 66495U 25263L   25342.25003472  .00100457  00000+0  17008-2 0  9991
2 66495  43.0005 151.3792 0001701 283.7632 125.4949 15.50503193  4912
STARLINK-35909          
1 66496U 25263M   25342.25003472 -.00063716  00000+0 -10890-2 0  9992
2 66496  43.0006 151.3735 0001690 262.5513 148.6200 15.50580985  4912
STARLINK-35899          
1 66497U 25263N   25342.25003472  .00085908  00000+0  14580-2 0  9998
2 66497  43.0005 151.3688 0001765 281.5141 131.5791 15.50504325  4910
STARLINK-35907          
1 66498U 25263P   25342.25003472 -.00042298  00000+0 -71927-3 0  9995
2 66498  43.0004 151.3635 0001487 265.9039 149.1000 15.50570734  4910
